start=new Date('2022-09-22T00:00:00.000Z').valueOf();
sats=[{"APOAPSIS":"541.076","TLE_LINE1":"1 51104U 22005A   22264.28918406  .00000323  00000-0  38416-4 0  9998","REV_AT_EPOCH":"3784","ECCENTRICITY":"0.00019270","MEAN_MOTION_DDOT":"0.0000000000000","MEAN_ELEMENT_THEORY":"SGP4","SEMIMAJOR_AXIS":"6917.878","MEAN_ANOMALY":"307.0884","COUNTRY_CODE":"US","INCLINATION":"53.2186","PERIOD":"95.438","EPOCH":"2022-09-21T06:56:25.502784","LAUNCH_DATE":"2022-01-19","REF_FRAME":"TEME","EPHEMERIS_TYPE":"0","MEAN_MOTION_DOT":"0.00000323","CENTER_NAME":"EARTH","RA_OF_ASC_NODE":"209.7185","NORAD_CAT_ID":"51104","FILE":"3579752","MEAN_MOTION":"15.08840808","DECAY_DATE":null,"CLASSIFICATION_TYPE":"U","OBJECT_NAME":"STARLINK-3366","GP_ID":"213192317","OBJECT_ID":"2022-005A","ARG_OF_PERICENTER":"53.0284","BSTAR":"0.00003841600000","PERIAPSIS":"538.410","RCS_SIZE":"LARGE","OBJECT_TYPE":"PAYLOAD","TLE_LINE2":"2 51104  53.2186 209.7185 0001927  53.0284 307.0884 15.08840808 37845","TIME_SYSTEM":"UTC","SITE":"AFETR","ELEMENT_SET_NO":"999"},{"PERIAPSIS":"538.460","DECAY_DATE":null,"CLASSIFICATION_TYPE":"U","OBJECT_NAME":"STARLINK-3350","BSTAR":"0.00007928300000","ARG_OF_PERICENTER":"58.9608","OBJECT_ID":"2022-005B","GP_ID":"213193060","TLE_LINE2":"2 51105  53.2160 207.1780 0001870  58.9608 301.1567 15.08837285 37930","ELEMENT_SET_NO":"999","TIME_SYSTEM":"UTC","SITE":"AFETR","RCS_SIZE":"LARGE","OBJECT_TYPE":"PAYLOAD","APOAPSIS":"541.047","MEAN_MOTION_DDOT":"0.0000000000000","ECCENTRICITY":"0.00018700","TLE_LINE1":"1 51105U 22005B   22264.85958635  .00000974  00000-0  79283-4 0  9999","REV_AT_EPOCH":"3793","EPHEMERIS_TYPE":"0","REF_FRAME":"TEME","MEAN_MOTION":"15.08837285","FILE":"3579752","NORAD_CAT_ID":"51105","RA_OF_ASC_NODE":"207.1780","MEAN_MOTION_DOT":"0.00000974","CENTER_NAME":"EARTH","INCLINATION":"53.2160","COUNTRY_CODE":"US","SEMIMAJOR_AXIS":"6917.889","MEAN_ANOMALY":"301.1567","MEAN_ELEMENT_THEORY":"SGP4","LAUNCH_DATE":"2022-01-19","PERIOD":"95.438","EPOCH":"2022-09-21T20:37:48.260640"},{"APOAPSIS":"541.128","TLE_LINE1":"1 51106U 22005C   22264.83751266 -.00001352  00000-0 -66838-4 0  9994","REV_AT_EPOCH":"3792","ECCENTRICITY":"0.00019670","MEAN_MOTION_DDOT":"0.0000000000000","SEMIMAJOR_AXIS":"6917.903","MEAN_ELEMENT_THEORY":"SGP4","MEAN_ANOMALY":"315.1722","COUNTRY_CODE":"US","INCLINATION":"53.2163","EPOCH":"2022-09-21T20:06:01.093824","PERIOD":"95.438","LAUNCH_DATE":"2022-01-19","REF_FRAME":"TEME","EPHEMERIS_TYPE":"0","CENTER_NAME":"EARTH","MEAN_MOTION_DOT":"-0.00001352","RA_OF_ASC_NODE":"207.2504","FILE":"3579752","NORAD_CAT_ID":"51106","MEAN_MOTION":"15.08832759","CLASSIFICATION_TYPE":"U","DECAY_DATE":null,"OBJECT_NAME":"STARLINK-3176","GP_ID":"213191816","OBJECT_ID":"2022-005C","ARG_OF_PERICENTER":"44.9429","BSTAR":"-0.00006683800000","PERIAPSIS":"538.407","RCS_SIZE":"LARGE","OBJECT_TYPE":"PAYLOAD","TLE_LINE2":"2 51106  53.2163 207.2504 0001967  44.9429 315.1722 15.08832759 37920","TIME_SYSTEM":"UTC","SITE":"AFETR","ELEMENT_SET_NO":"999"},{"ARG_OF_PERICENTER":"52.0087","BSTAR":"0.00008680300000","GP_ID":"213191566","OBJECT_ID":"2022-005D","OBJECT_NAME":"STARLINK-3368","DECAY_DATE":null,"CLASSIFICATION_TYPE":"U","PERIAPSIS":"538.505","OBJECT_TYPE":"PAYLOAD","RCS_SIZE":"LARGE","TIME_SYSTEM":"UTC","SITE":"AFETR","ELEMENT_SET_NO":"999","TLE_LINE2":"2 51107  53.2175 217.2699 0001800  52.0087 308.1068 15.08838370 37791","MEAN_MOTION_DDOT":"0.0000000000000","TLE_LINE1":"1 51107U 22005D   22264.83754095  .00001094  00000-0  86803-4 0  9993","REV_AT_EPOCH":"3779","ECCENTRICITY":"0.00018000","APOAPSIS":"540.996","LAUNCH_DATE":"2022-01-19","PERIOD":"95.438","EPOCH":"2022-09-21T20:06:03.538080","COUNTRY_CODE":"US","INCLINATION":"53.2175","SEMIMAJOR_AXIS":"6917.885","MEAN_ANOMALY":"308.1068","MEAN_ELEMENT_THEORY":"SGP4","NORAD_CAT_ID":"51107","FILE":"3579752","MEAN_MOTION":"15.08838370","CENTER_NAME":"EARTH","MEAN_MOTION_DOT":"0.00001094","RA_OF_ASC_NODE":"217.2699","EPHEMERIS_TYPE":"0","REF_FRAME":"TEME"},{"REF_FRAME":"TEME","EPHEMERIS_TYPE":"0","CENTER_NAME":"EARTH","MEAN_MOTION_DOT":"0.00000756","RA_OF_ASC_NODE":"209.5709","FILE":"3579752","MEAN_MOTION":"15.08841923","NORAD_CAT_ID":"51108","SEMIMAJOR_AXIS":"6917.875","MEAN_ANOMALY":"313.7531","MEAN_ELEMENT_THEORY":"SGP4","COUNTRY_CODE":"US","INCLINATION":"53.2149","PERIOD":"95.437","EPOCH":"2022-09-21T07:49:24.729024","LAUNCH_DATE":"2022-01-19","APOAPSIS":"541.181","TLE_LINE1":"1 51108U 22005E   22264.32598066  .00000756  00000-0  65609-4 0  9997","REV_AT_EPOCH":"3785","ECCENTRICITY":"0.00020830","MEAN_MOTION_DDOT":"0.0000000000000","TLE_LINE2":"2 51108  53.2149 209.5709 0002083  46.3634 313.7531 15.08841923 37859","TIME_SYSTEM":"UTC","SITE":"AFETR","ELEMENT_SET_NO":"999","RCS_SIZE":"LARGE","OBJECT_TYPE":"PAYLOAD","PERIAPSIS":"538.299","CLASSIFICATION_TYPE":"U","DECAY_DATE":null,"OBJECT_NAME":"STARLINK-3362","GP_ID":"213192818","OBJECT_ID":"2022-005E","ARG_OF_PERICENTER":"46.3634","BSTAR":"0.00006560900000"},{"MEAN_MOTION_DOT":"-0.00000876","CENTER_NAME":"EARTH","RA_OF_ASC_NODE":"209.4451","NORAD_CAT_ID":"51109","FILE":"3579752","MEAN_MOTION":"15.08830971","REF_FRAME":"TEME","EPHEMERIS_TYPE":"0","EPOCH":"2022-09-21T08:22:36.227424","PERIOD":"95.438","LAUNCH_DATE":"2022-01-19","SEMIMAJOR_AXIS":"6917.908","MEAN_ELEMENT_THEORY":"SGP4","MEAN_ANOMALY":"315.5400","COUNTRY_CODE":"US","INCLINATION":"53.2165","REV_AT_EPOCH":"3762","TLE_LINE1":"1 51109U 22005F   22264.34903041 -.00000876  00000-0 -36955-4 0  9990","ECCENTRICITY":"0.00020040","MEAN_MOTION_DDOT":"0.0000000000000","APOAPSIS":"541.159","TIME_SYSTEM":"UTC","SITE":"AFETR","ELEMENT_SET_NO":"999","TLE_LINE2":"2 51109  53.2165 209.4451 0002004  44.5753 315.5400 15.08830971 37627","OBJECT_TYPE":"PAYLOAD","RCS_SIZE":"LARGE","PERIAPSIS":"538.387","GP_ID":"213192560","OBJECT_ID":"2022-005F","ARG_OF_PERICENTER":"44.5753","BSTAR":"-0.00003695500000","OBJECT_NAME":"STARLINK-3358","DECAY_DATE":null,"CLASSIFICATION_TYPE":"U"},{"APOAPSIS":"541.217","TLE_LINE1":"1 51110U 22005G   22264.58359417  .00003643  00000-0  24688-3 0  9992","REV_AT_EPOCH":"3789","ECCENTRICITY":"0.00021410","MEAN_MOTION_DDOT":"0.0000000000000","REF_FRAME":"TEME","EPHEMERIS_TYPE":"0","MEAN_MOTION_DOT":"0.00003643","CENTER_NAME":"EARTH","RA_OF_ASC_NODE":"208.4139","MEAN_MOTION":"15.08843002","FILE":"3579752","NORAD_CAT_ID":"51110","MEAN_ELEMENT_THEORY":"SGP4","SEMIMAJOR_AXIS":"6917.871","MEAN_ANOMALY":"306.0356","COUNTRY_CODE":"US","INCLINATION":"53.2152","EPOCH":"2022-09-21T14:00:22.536288","PERIOD":"95.437","LAUNCH_DATE":"2022-01-19","PERIAPSIS":"538.255","DECAY_DATE":null,"CLASSIFICATION_TYPE":"U","OBJECT_NAME":"STARLINK-3344","GP_ID":"213191316","OBJECT_ID":"2022-005G","ARG_OF_PERICENTER":"54.0834","BSTAR":"0.00024688000000","TLE_LINE2":"2 51110  53.2152 208.4139 0002141  54.0834 306.0356 15.08843002 37898","TIME_SYSTEM":"UTC","SITE":"AFETR","ELEMENT_SET_NO":"999","RCS_SIZE":"LARGE","OBJECT_TYPE":"PAYLOAD"},{"APOAPSIS":"540.975","TLE_LINE1":"1 51111U 22005H   22264.22663666 -.00001582  00000-0 -81318-4 0  9994","REV_AT_EPOCH":"3783","ECCENTRICITY":"0.00017180","MEAN_MOTION_DDOT":"0.0000000000000","SEMIMAJOR_AXIS":"6917.922","MEAN_ELEMENT_THEORY":"SGP4","MEAN_ANOMALY":"301.5953","COUNTRY_CODE":"US","INCLINATION":"53.2187","EPOCH":"2022-09-21T05:26:21.407424","PERIOD":"95.438","LAUNCH_DATE":"2022-01-19","REF_FRAME":"TEME","EPHEMERIS_TYPE":"0","MEAN_MOTION_DOT":"-0.00001582","CENTER_NAME":"EARTH","RA_OF_ASC_NODE":"210.0046","MEAN_MOTION":"15.08826425","FILE":"3579752","NORAD_CAT_ID":"51111","OBJECT_NAME":"STARLINK-3173","DECAY_DATE":null,"CLASSIFICATION_TYPE":"U","GP_ID":"213192067","OBJECT_ID":"2022-005H","ARG_OF_PERICENTER":"58.5207","BSTAR":"-0.00008131800000","PERIAPSIS":"538.598","RCS_SIZE":"LARGE","OBJECT_TYPE":"PAYLOAD","TLE_LINE2":"2 51111  53.2187 210.0046 0001718  58.5207 301.5953 15.08826425 37832","TIME_SYSTEM":"UTC","SITE":"AFETR","ELEMENT_SET_NO":"999"},{"ARG_OF_PERICENTER":"48.8427","BSTAR":"-0.00000836760000","GP_ID":"213192318","OBJECT_ID":"2022-005J","OBJECT_NAME":"STARLINK-3374","DECAY_DATE":null,"CLASSIFICATION_TYPE":"U","PERIAPSIS":"538.389","OBJECT_TYPE":"PAYLOAD","RCS_SIZE":"LARGE","TIME_SYSTEM":"UTC","SITE":"AFETR","ELEMENT_SET_NO":"999","TLE_LINE2":"2 51112  53.2181 209.6177 0001944  48.8427 311.2733 15.08843753 37852","MEAN_MOTION_DDOT":"0.0000000000000","TLE_LINE1":"1 51112U 22005J   22264.31494255 -.00000421  00000-0 -83676-5 0  9992","REV_AT_EPOCH":"3785","ECCENTRICITY":"0.00019440","APOAPSIS":"541.079","LAUNCH_DATE":"2022-01-19","EPOCH":"2022-09-21T07:33:31.036320","PERIOD":"95.437","COUNTRY_CODE":"US","INCLINATION":"53.2181","MEAN_ANOMALY":"311.2733","SEMIMAJOR_AXIS":"6917.869","MEAN_ELEMENT_THEORY":"SGP4","FILE":"3579752","NORAD_CAT_ID":"51112","MEAN_MOTION":"15.08843753","MEAN_MOTION_DOT":"-0.00000421","CENTER_NAME":"EARTH","RA_OF_ASC_NODE":"209.6177","EPHEMERIS_TYPE":"0","REF_FRAME":"TEME"},{"INCLINATION":"53.2168","COUNTRY_CODE":"US","MEAN_ELEMENT_THEORY":"SGP4","SEMIMAJOR_AXIS":"6917.886","MEAN_ANOMALY":"307.0389","LAUNCH_DATE":"2022-01-19","PERIOD":"95.438","EPOCH":"2022-09-21T20:00:42.666624","EPHEMERIS_TYPE":"0","REF_FRAME":"TEME","FILE":"3579752","NORAD_CAT_ID":"51113","MEAN_MOTION":"15.08838267","RA_OF_ASC_NODE":"207.2702","MEAN_MOTION_DOT":"0.00001842","CENTER_NAME":"EARTH","APOAPSIS":"541.000","MEAN_MOTION_DDOT":"0.0000000000000","ECCENTRICITY":"0.00018060","TLE_LINE1":"1 51113U 22005K   22264.83382716  .00001842  00000-0  13381-3 0  9998","REV_AT_EPOCH":"3792","RCS_SIZE":"LARGE","OBJECT_TYPE":"PAYLOAD","TLE_LINE2":"2 51113  53.2168 207.2702 0001806  53.0768 307.0389 15.08838267 37921","ELEMENT_SET_NO":"999","TIME_SYSTEM":"UTC","SITE":"AFETR","OBJECT_NAME":"STARLINK-3372","DECAY_DATE":null,"CLASSIFICATION_TYPE":"U","BSTAR":"0.00013381000000","ARG_OF_PERICENTER":"53.0768","OBJECT_ID":"2022-005K","GP_ID":"213193061","PERIAPSIS":"538.501"}];
